{
  "type": "FeatureCollection",
  "features": [
    {
      "type": "Feature",
      "properties": {
        "norad_id": 33822,
        "name": "COSMOS 2251 DEB",
        "group": "cosmos-2251-debris",
        "lat": -52.81929958053475,
        "lon": 157.3547393444608,
        "alt_km": 835.0799906358507,
        "timestamp": "2025-12-20T18:51:32.105847+00:00",
        "meta_object_name": "COSMOS 2251 DEB",
        "meta_object_id": "1993-036BP",
        "meta_epoch": "2025-12-20T12:28:38.229024",
        "meta_mean_motion": 14.13104908,
        "meta_eccentricity": 0.01528912,
        "meta_inclination": 74.0675,
        "meta_ra_of_asc_node": 179.947,
        "meta_arg_of_pericenter": 224.3699,
        "meta_mean_anomaly": 165.8667,
        "meta_ephemeris_type": 0,
        "meta_classification_type": "U",
        "meta_norad_cat_id": 33822,
        "meta_element_set_no": 999,
        "meta_rev_at_epoch": 86164,
        "meta_bstar": 0.00089699115,
        "meta_mean_motion_dot": 1.848e-05,
        "meta_mean_motion_ddot": 0,
        "tle_line1": "1 33822U 93036BP  25354.51988691  .00001848  00000+0  89699-3 0  9999",
        "tle_line2": "2 33822  74.0675 179.9470 0152891 224.3699 165.8667 14.13104908861642"
      },
      "geometry": {
        "type": "Point",
        "coordinates": [
          157.3547393444608,
          -52.81929958053475
        ]
      }
    },
    {
      "type": "Feature",
      "properties": {
        "norad_id": 33823,
        "name": "COSMOS 2251 DEB",
        "group": "cosmos-2251-debris",
        "lat": 68.71326249066695,
        "lon": -176.55414593380658,
        "alt_km": 1042.473358555494,
        "timestamp": "2025-12-20T18:51:32.105858+00:00",
        "meta_object_name": "COSMOS 2251 DEB",
        "meta_object_id": "1993-036BQ",
        "meta_epoch": "2025-12-20T09:58:30.172800",
        "meta_mean_motion": 13.98967787,
        "meta_eccentricity": 0.02094049,
        "meta_inclination": 73.8096,
        "meta_ra_of_asc_node": 135.8775,
        "meta_arg_of_pericenter": 259.8051,
        "meta_mean_anomaly": 112.5653,
        "meta_ephemeris_type": 0,
        "meta_classification_type": "U",
        "meta_norad_cat_id": 33823,
        "meta_element_set_no": 999,
        "meta_rev_at_epoch": 85717,
        "meta_bstar": 0.00055908456,
        "meta_mean_motion_dot": 9.47e-06,
        "meta_mean_motion_ddot": 0,
        "tle_line1": "1 33823U 93036BQ  25354.41562700  .00000947  00000+0  55908-3 0  9993",
        "tle_line2": "2 33823  73.8096 135.8775 0209404 259.8051 112.5653 13.98967787857175"
      },
      "geometry": {
        "type": "Point",
        "coordinates": [
          -176.55414593380658,
          68.71326249066695
        ]
      }
    },
    {
      "type": "Feature",
      "properties": {
        "norad_id": 33825,
        "name": "COSMOS 2251 DEB",
        "group": "cosmos-2251-debris",
        "lat": -21.219974813161507,
        "lon": 5.740994421813936,
        "alt_km": 606.7647437280839,
        "timestamp": "2025-12-20T18:51:32.105869+00:00",
        "meta_object_name": "COSMOS 2251 DEB",
        "meta_object_id": "1993-036BS",
        "meta_epoch": "2025-12-20T11:19:17.073696",
        "meta_mean_motion": 14.69826205,
        "meta_eccentricity": 0.00849395,
        "meta_inclination": 73.9844,
        "meta_ra_of_asc_node": 12.7547,
        "meta_arg_of_pericenter": 337.9681,
        "meta_mean_anomaly": 138.872,
        "meta_ephemeris_type": 0,
        "meta_classification_type": "U",
        "meta_norad_cat_id": 33825,
        "meta_element_set_no": 999,
        "meta_rev_at_epoch": 88993,
        "meta_bstar": 0.00055372478,
        "meta_mean_motion_dot": 3.463e-05,
        "meta_mean_motion_ddot": 0,
        "tle_line1": "1 33825U 93036BS  25354.47172539  .00003463  00000+0  55372-3 0  9999",
        "tle_line2": "2 33825  73.9844  12.7547 0084939 337.9681 138.8720 14.69826205889933"
      },
      "geometry": {
        "type": "Point",
        "coordinates": [
          5.740994421813936,
          -21.219974813161507
        ]
      }
    },
    {
      "type": "Feature",
      "properties": {
        "norad_id": 33826,
        "name": "COSMOS 2251 DEB",
        "group": "cosmos-2251-debris",
        "lat": 60.57115905778191,
        "lon": 65.17805987688563,
        "alt_km": 656.2130556131424,
        "timestamp": "2025-12-20T18:51:32.105880+00:00",
        "meta_object_name": "COSMOS 2251 DEB",
        "meta_object_id": "1993-036BT",
        "meta_epoch": "2025-12-20T14:09:39.581280",
        "meta_mean_motion": 14.5175577,
        "meta_eccentricity": 0.00825639,
        "meta_inclination": 74.0644,
        "meta_ra_of_asc_node": 35.117,
        "meta_arg_of_pericenter": 76.8214,
        "meta_mean_anomaly": 45.7262,
        "meta_ephemeris_type": 0,
        "meta_classification_type": "U",
        "meta_norad_cat_id": 33826,
        "meta_element_set_no": 999,
        "meta_rev_at_epoch": 87883,
        "meta_bstar": 0.00036978277,
        "meta_mean_motion_dot": 1.525e-05,
        "meta_mean_motion_ddot": 0,
        "tle_line1": "1 33826U 93036BT  25354.59004145  .00001525  00000+0  36978-3 0  9998",
        "tle_line2": "2 33826  74.0644  35.1170 0082563  76.8214  45.7262 14.51755770878830"
      },
      "geometry": {
        "type": "Point",
        "coordinates": [
          65.17805987688563,
          60.57115905778191
        ]
      }
    },
    {
      "type": "Feature",
      "properties": {
        "norad_id": 33828,
        "name": "COSMOS 2251 DEB",
        "group": "cosmos-2251-debris",
        "lat": 66.23592197539712,
        "lon": 2.6077786324880003,
        "alt_km": 758.2034217243408,
        "timestamp": "2025-12-20T18:51:32.105891+00:00",
        "meta_object_name": "COSMOS 2251 DEB",
        "meta_object_id": "1993-036BV",
        "meta_epoch": "2025-12-20T15:08:12.575040",
        "meta_mean_motion": 14.44353865,
        "meta_eccentricity": 0.00295139,
        "meta_inclination": 74.0454,
        "meta_ra_of_asc_node": 223.4166,
        "meta_arg_of_pericenter": 295.1404,
        "meta_mean_anomaly": 86.5486,
        "meta_ephemeris_type": 0,
        "meta_classification_type": "U",
        "meta_norad_cat_id": 33828,
        "meta_element_set_no": 999,
        "meta_rev_at_epoch": 88427,
        "meta_bstar": 0.00027418263,
        "meta_mean_motion_dot": 9.22e-06,
        "meta_mean_motion_ddot": 0,
        "tle_line1": "1 33828U 93036BV  25354.63070110  .00000922  00000+0  27418-3 0  9999",
        "tle_line2": "2 33828  74.0454 223.4166 0029513 295.1404  86.5486 14.44353865884278"
      },
      "geometry": {
        "type": "Point",
        "coordinates": [
          2.6077786324880003,
          66.23592197539712
        ]
      }
    },
    {
      "type": "Feature",
      "properties": {
        "norad_id": 33830,
        "name": "COSMOS 2251 DEB",
        "group": "cosmos-2251-debris",
        "lat": -24.74991896723211,
        "lon": 42.17628390106286,
        "alt_km": 662.145693328348,
        "timestamp": "2025-12-20T18:51:32.105905+00:00",
        "meta_object_name": "COSMOS 2251 DEB",
        "meta_object_id": "1993-036BX",
        "meta_epoch": "2025-12-20T02:23:57.641280",
        "meta_mean_motion": 14.76972703,
        "meta_eccentricity": 0.00425749,
        "meta_inclination": 74.0314,
        "meta_ra_of_asc_node": 215.935,
        "meta_arg_of_pericenter": 334.516,
        "meta_mean_anomaly": 186.5439,
        "meta_ephemeris_type": 0,
        "meta_classification_type": "U",
        "meta_norad_cat_id": 33830,
        "meta_element_set_no": 999,
        "meta_rev_at_epoch": 89580,
        "meta_bstar": 0.00047360759,
        "meta_mean_motion_dot": 3.353e-05,
        "meta_mean_motion_ddot": 0,
        "tle_line1": "1 33830U 93036BX  25354.09997270  .00003353  00000+0  47361-3 0  9997",
        "tle_line2": "2 33830  74.0314 215.9350 0042574 334.5160 186.5439 14.76972703895809"
      },
      "geometry": {
        "type": "Point",
        "coordinates": [
          42.17628390106286,
          -24.74991896723211
        ]
      }
    },
    {
      "type": "Feature",
      "properties": {
        "norad_id": 33832,
        "name": "COSMOS 2251 DEB",
        "group": "cosmos-2251-debris",
        "lat": 32.68130014498675,
        "lon": 4.05178120886217,
        "alt_km": 685.00950688804,
        "timestamp": "2025-12-20T18:51:32.105915+00:00",
        "meta_object_name": "COSMOS 2251 DEB",
        "meta_object_id": "1993-036BZ",
        "meta_epoch": "2025-12-20T13:23:52.438848",
        "meta_mean_motion": 14.60728869,
        "meta_eccentricity": 0.00244182,
        "meta_inclination": 74.0526,
        "meta_ra_of_asc_node": 195.056,
        "meta_arg_of_pericenter": 224.6655,
        "meta_mean_anomaly": 165.2826,
        "meta_ephemeris_type": 0,
        "meta_classification_type": "U",
        "meta_norad_cat_id": 33832,
        "meta_element_set_no": 999,
        "meta_rev_at_epoch": 88539,
        "meta_bstar": 0.00077782056,
        "meta_mean_motion_dot": 3.78e-05,
        "meta_mean_motion_ddot": 0,
        "tle_line1": "1 33832U 93036BZ  25354.55824582  .00003780  00000+0  77782-3 0  9999",
        "tle_line2": "2 33832  74.0526 195.0560 0024418 224.6655 165.2826 14.60728869885394"
      },
      "geometry": {
        "type": "Point",
        "coordinates": [
          4.05178120886217,
          32.68130014498675
        ]
      }
    }
  ]
}